[{"OBJECT_NAME":"FFLY02","OBJECT_ID":"2025-188H","EPOCH":"2026-03-09T22:44:52.619136","MEAN_MOTION":14.92826675,"ECCENTRICITY":0.00145762,"INCLINATION":97.7427,"RA_OF_ASC_NODE":145.8314,"ARG_OF_PERICENTER":94.3001,"MEAN_ANOMALY":265.9884,"EPHEMERIS_TYPE":0,"CLASSIFICATION_TYPE":"U","NORAD_CAT_ID":65322,"ELEMENT_SET_NO":999,"REV_AT_EPOCH":2910,"BSTAR":0.00025589032,"MEAN_MOTION_DOT":2.597e-5,"MEAN_MOTION_DDOT":0},{"OBJECT_NAME":"COSMOS 2251 DEB","OBJECT_ID":"1993-036NZ","EPOCH":"2026-03-09T21:15:03.836448","MEAN_MOTION":14.91859868,"ECCENTRICITY":0.00323485,"INCLINATION":73.9961,"RA_OF_ASC_NODE":356.9153,"ARG_OF_PERICENTER":157.6141,"MEAN_ANOMALY":263.4728,"EPHEMERIS_TYPE":0,"CLASSIFICATION_TYPE":"U","NORAD_CAT_ID":34327,"ELEMENT_SET_NO":999,"REV_AT_EPOCH":90806,"BSTAR":0.0014341536,"MEAN_MOTION_DOT":0.00014628,"MEAN_MOTION_DDOT":0}]
